STARLINK-2324
1 17869C 21021K   21326.18766671  .00004178  00000-0  27990-3 0  3260
2 17869  53.0557 102.8992 0001450  74.5289 218.5380 15.06402834    18
